ORBCOMM FM24 [-]        
1 25478U 98053D   23305.82533642  .00001537  00000+0  58593-3 0  9995
2 25478  45.0085 194.6878 0000757  71.9232 288.1698 14.34839413312138
ORBCOMM FM25 [-]        
1 25479U 98053E   23305.78941451  .00001549  00000+0  59030-3 0  9992
2 25479  45.0075 193.0914 0002708 147.7114 212.3899 14.34819205312422
ORBCOMM FM26 [-]        
1 25480U 98053F   23305.93912730  .00001257  00000+0  49235-3 0  9991
2 25480  45.0069 185.7899 0004751 179.2442 180.8413 14.34379473312396
ORBCOMM FM27 [+]        
1 25481U 98053G   23306.05299004  .00001492  00000+0  57062-3 0  9996
2 25481  45.0059 192.1050 0001376 348.4387  11.6428 14.34795286312431
ORBCOMM FM28 [-]        
1 25482U 98053H   23305.82285286  .00001359  00000+0  51906-3 0  9991
2 25482  45.0051 132.3348 0003791 198.4396 161.6314 14.35278670313026
ORBCOMM FM30 [-]        
1 25980U 99065A   23305.91927306  .00001381  00000+0  53475-3 0  9992
2 25980  45.0340  11.2244 0007664 271.6432  88.3537 14.34510144249189
ORBCOMM FM31 [-]        
1 25981U 99065B   23305.88657189  .00001442  00000+0  55585-3 0  9990
2 25981  45.0252   5.2258 0004558 283.2239  76.8100 14.34540058248738
ORBCOMM FM32 [+]        
1 25982U 99065C   23305.93905146  .00001352  00000+0  53544-3 0  9999
2 25982  45.0179  17.3820 0006467 290.5960  69.4193 14.33479871249520
